H1 CPF 01  gfz 2021 02 05 13  5362 terrasarx 
H2 0702601  6201 31698    2021 02 05 12 59 42 2021 02 10 00 00 42   120 1 1  0 0 0
H9
10 0 59250  63342.000000  0    1175993.938   -754701.362   6734642.553
10 0 59250  63462.000000  0     266494.517   -869126.084   6817533.509
10 0 59250  63582.000000  0    -649382.237   -952415.085   6780646.128
10 0 59250  63702.000000  0   -1555102.015  -1003147.725   6624624.095
10 0 59250  63822.000000  0   -2434286.010  -1020757.595   6352189.328
10 0 59250  63942.000000  0   -3271005.269  -1005536.853   5968097.836
10 0 59250  64062.000000  0   -4050070.858   -958621.055   5479063.816
10 0 59250  64182.000000  0   -4757314.681   -881955.610   4893648.995
10 0 59250  64302.000000  0   -5379854.420   -778243.122   4222117.985
10 0 59250  64422.000000  0   -5906336.515   -650872.761   3476261.696
10 0 59250  64542.000000  0   -6327151.748   -503833.098   2669192.459
10 0 59250  64662.000000  0   -6634621.178   -341610.224   1815114.297
10 0 59250  64782.000000  0   -6823146.606   -169073.259    929068.802
10 0 59250  64902.000000  0   -6889319.175      8649.085     26663.005
10 0 59250  65022.000000  0   -6831984.138    186298.654   -876214.217
10 0 59250  65142.000000  0   -6652259.488    358621.316  -1763681.257
10 0 59250  65262.000000  0   -6353508.909    520499.504  -2620149.994
10 0 59250  65382.000000  0   -5941272.527    667081.174  -3430606.341
10 0 59250  65502.000000  0   -5423151.686    793902.066  -4180878.306
10 0 59250  65622.000000  0   -4808655.342    896997.860  -4857882.611
10 0 59250  65742.000000  0   -4109012.500    973003.377  -5449848.178
10 0 59250  65862.000000  0   -3336956.134   1019237.038  -5946512.264
10 0 59250  65982.000000  0   -2506483.498   1033768.370  -6339287.685
10 0 59250  66102.000000  0   -1632598.896   1015468.353  -6621399.557
10 0 59250  66222.000000  0    -731041.957    964042.579  -6787991.159
10 0 59250  66342.000000  0     181991.824    880045.246  -6836197.069
10 0 59250  66462.000000  0    1090133.908    764874.931  -6765187.363
10 0 59250  66582.000000  0    1977129.715    620751.636  -6576182.919
10 0 59250  66702.000000  0    2827123.853    450675.563  -6272436.278
10 0 59250  66822.000000  0    3624938.983    258368.700  -5859181.477
10 0 59250  66942.000000  0    4356343.982     48198.598  -5343552.159
10 0 59250  67062.000000  0    5008308.435   -174913.299  -4734470.192
10 0 59250  67182.000000  0    5569241.142   -405597.806  -4042502.818
10 0 59250  67302.000000  0    6029204.670   -638157.051  -3279688.585
10 0 59250  67422.000000  0    6380102.391   -866694.122  -2459335.715
10 0 59250  67542.000000  0    6615833.987  -1085250.707  -1595794.118
10 0 59250  67662.000000  0    6732413.878  -1287948.785   -704204.212
10 0 59250  67782.000000  0    6728048.869  -1469133.400    199771.756
10 0 59250  67902.000000  0    6603173.432  -1623512.941   1100231.216
10 0 59250  68022.000000  0    6360439.198  -1746293.313   1981319.582
10 0 59250  68142.000000  0    6004660.416  -1833302.521   2827518.561
10 0 59250  68262.000000  0    5542714.765  -1881101.201   3623928.285
10 0 59250  68382.000000  0    4983403.124  -1887077.890   4356535.381
10 0 59250  68502.000000  0    4337273.082  -1849525.695   5012462.071
10 0 59250  68622.000000  0    3616411.828  -1767698.485   5580192.972
10 0 59250  68742.000000  0    2834210.722  -1641846.697   6049775.890
10 0 59250  68862.000000  0    2005108.589  -1473231.214   6412990.646
10 0 59250  68982.000000  0    1144320.358  -1264116.052   6663487.271
10 0 59250  69102.000000  0     267554.234  -1017739.012   6796891.379
10 0 59250  69222.000000  0    -609276.143   -738260.894   6810874.901
10 0 59250  69342.000000  0   -1470339.391   -430695.102   6705193.176
10 0 59250  69462.000000  0   -2300170.705   -100818.001   6481688.897
10 0 59250  69582.000000  0   -3083948.420    244938.786   6144262.606
10 0 59250  69702.000000  0   -3807759.705    599612.283   5698809.918
10 0 59250  69822.000000  0   -4458851.475    955846.036   5153124.733
10 0 59250  69942.000000  0   -5025861.126   1306040.225   4516768.921
10 0 59250  70062.000000  0   -5499023.022   1642511.417   3800909.573
10 0 59250  70182.000000  0   -5870344.983   1957658.018   3018125.707
10 0 59250  70302.000000  0   -6133751.962   2244128.118   2182188.299
10 0 59250  70422.000000  0   -6285193.890   2494985.916   1307816.253
10 0 59250  70542.000000  0   -6322713.878   2703872.893    410411.375
10 0 59250  70662.000000  0   -6246473.220   2865158.600   -494221.010
10 0 59250  70782.000000  0   -6058733.977   2974077.459  -1390159.312
10 0 59250  70902.000000  0   -5763799.055   3026848.169  -2261654.673
10 0 59250  71022.000000  0   -5367910.985   3020773.013  -3093416.303
10 0 59250  71142.000000  0   -4879112.224   2954313.386  -3870884.546
10 0 59250  71262.000000  0   -4307072.282   2827141.243  -4580486.720
10 0 59250  71382.000000  0   -3662886.502   2640165.049  -5209870.707
10 0 59250  71502.000000  0   -2958852.198   2395530.475  -5748112.091
10 0 59250  71622.000000  0   -2208229.092   2096597.203  -6185893.977
10 0 59250  71742.000000  0   -1424985.803   1747891.377  -6515658.175
10 0 59250  71862.000000  0    -623539.808   1355035.083  -6731723.088
10 0 59250  71982.000000  0     181504.102    924655.088  -6830371.384
10 0 59250  72102.000000  0     975613.119    464272.626  -6809906.828
10 0 59250  72222.000000  0    1744583.286    -17825.318  -6670682.278
10 0 59250  72342.000000  0    2474788.176   -512731.919  -6415093.012
10 0 59250  72462.000000  0    3153415.417  -1011080.467  -6047540.464
10 0 59250  72582.000000  0    3768689.278  -1503216.760  -5574363.574
10 0 59250  72702.000000  0    4310075.402  -1979381.528  -5003740.891
10 0 59250  72822.000000  0    4768465.949  -2429902.047  -4345560.563
10 0 59250  72942.000000  0    5136339.228  -2845387.226  -3611259.305
10 0 59250  73062.000000  0    5407891.883  -3216922.648  -2813632.708
10 0 59250  73182.000000  0    5579140.445  -3536261.539  -1966617.555
10 0 59250  73302.000000  0    5647987.770  -3796006.819  -1085049.971
10 0 59250  73422.000000  0    5614253.197  -3989780.447   -184403.918
10 0 59250  73542.000000  0    5479664.589  -4112374.679    719485.953
10 0 59250  73662.000000  0    5247811.571  -4159882.027   1610709.950
10 0 59250  73782.000000  0    4924060.165  -4129798.835   2473573.069
10 0 59250  73902.000000  0    4515431.353  -4021098.972   3292880.380
10 0 59250  74022.000000  0    4030448.354  -3834277.905   4054210.525
10 0 59250  74142.000000  0    3478955.700  -3571366.383   4744174.637
10 0 59250  74262.000000  0    2871912.971  -3235911.661   5350653.788
10 0 59250  74382.000000  0    2221171.896  -2832927.854   5863010.170
10 0 59250  74502.000000  0    1539239.697  -2368817.217   6272270.186
10 0 59250  74622.000000  0     839034.843  -1851264.674   6571275.389
10 0 59250  74742.000000  0     133640.294  -1289107.541   6754801.602
10 0 59250  74862.000000  0    -563941.229   -692182.492   6819644.615
10 0 59250  74982.000000  0   -1241025.904    -71152.492   6764671.971
10 0 59250  75102.000000  0   -1885478.391    562683.247   6590841.512
10 0 59250  75222.000000  0   -2485928.604   1197594.153   6301185.847
10 0 59250  75342.000000  0   -3031972.703   1821634.347   5900762.927
10 0 59250  75462.000000  0   -3514355.193   2422866.903   5396573.761
10 0 59250  75582.000000  0   -3925130.041   2989593.511   4797446.698
10 0 59250  75702.000000  0   -4257796.564   3510584.376   4113888.162
10 0 59250  75822.000000  0   -4507408.204   3975303.971   3357902.871
10 0 59250  75942.000000  0   -4670650.983   4374128.024   2542784.651
10 0 59250  76062.000000  0   -4745888.648   4698547.405   1682881.613
10 0 59250  76182.000000  0   -4733173.819   4941352.405    793338.911
10 0 59250  76302.000000  0   -4634225.362   5096791.717   -110174.435
10 0 59250  76422.000000  0   -4452372.904   5160704.707  -1011749.519
10 0 59250  76542.000000  0   -4192466.725   5130621.692  -1895529.022
10 0 59250  76662.000000  0   -3860755.691   5005827.937  -2745993.851
10 0 59250  76782.000000  0   -3464740.358   4787393.008  -3548242.434
10 0 59250  76902.000000  0   -3013001.616   4478162.202  -4288254.275
10 0 59250  77022.000000  0   -2515012.244   4082713.448  -4953132.350
10 0 59250  77142.000000  0   -1980936.425   3607282.457  -5531321.061
10 0 59250  77262.000000  0   -1421421.678   3059657.725  -6012799.285
10 0 59250  77382.000000  0    -847386.361   2449045.872  -6389244.453
10 0 59250  77502.000000  0    -269808.038   1785911.994  -6654164.531
10 0 59250  77622.000000  0     300482.653   1081799.190  -6802998.868
10 0 59250  77742.000000  0     852999.851    349129.595  -6833188.845
10 0 59250  77862.000000  0    1377791.441   -399010.822  -6744217.738
10 0 59250  77982.000000  0    1865613.898  -1149101.237  -6537617.024
10 0 59250  78102.000000  0    2308091.050  -1887423.727  -6216942.646
10 0 59250  78222.000000  0    2697856.253  -2600307.827  -5787720.622
10 0 59250  78342.000000  0    3028675.491  -3274379.989  -5257363.407
10 0 59250  78462.000000  0    3295550.294  -3896815.577  -4635052.419
10 0 59250  78582.000000  0    3494795.253  -4455583.842  -3931587.980
10 0 59250  78702.000000  0    3624090.996  -4939683.442  -3159212.642
10 0 59250  78822.000000  0    3682512.552  -5339366.195  -2331406.644
10 0 59250  78942.000000  0    3670529.075  -5646341.891  -1462655.463
10 0 59250  79062.000000  0    3589975.589  -5853957.020   -568195.937
10 0 59250  79182.000000  0    3443996.401  -5957344.469    336255.697
10 0 59250  79302.000000  0    3236960.464  -5953538.159   1234786.590
10 0 59250  79422.000000  0    2974352.851  -5841551.107   2111576.129
10 0 59250  79542.000000  0    2662642.310  -5622411.392   2951184.516
10 0 59250  79662.000000  0    2309129.259  -5299157.588   3738831.488
10 0 59250  79782.000000  0    1921779.685  -4876794.876   4460661.338
99
